[{"OBJECT_NAME":"STARLINK-31275","OBJECT_ID":"2024-045V","EPOCH":"2026-03-09T18:54:30.335904","MEAN_MOTION":15.27567189,"ECCENTRICITY":0.00019977,"INCLINATION":43.0053,"RA_OF_ASC_NODE":92.2241,"ARG_OF_PERICENTER":270.678,"MEAN_ANOMALY":89.3843,"EPHEMERIS_TYPE":0,"CLASSIFICATION_TYPE":"U","NORAD_CAT_ID":59197,"ELEMENT_SET_NO":999,"REV_AT_EPOCH":11317,"BSTAR":1.1677939e-5,"MEAN_MOTION_DOT":5.9e-7,"MEAN_MOTION_DDOT":0},{"OBJECT_NAME":"CZ-6A DEB","OBJECT_ID":"2024-140AB","EPOCH":"2026-03-09T12:39:40.872096","MEAN_MOTION":14.79496195,"ECCENTRICITY":0.02124268,"INCLINATION":89.014,"RA_OF_ASC_NODE":280.9531,"ARG_OF_PERICENTER":168.3647,"MEAN_ANOMALY":192.2602,"EPHEMERIS_TYPE":0,"CLASSIFICATION_TYPE":"U","NORAD_CAT_ID":60626,"ELEMENT_SET_NO":999,"REV_AT_EPOCH":8539,"BSTAR":0.00037700721,"MEAN_MOTION_DOT":4.17e-5,"MEAN_MOTION_DDOT":0}]
